{
  "links" : {
    "next" : "https://api.nasa.gov/neo/rest/v1/feed?start_date=2001-11-09&end_date=2001-11-09&detailed=true&api_key=t0TVs3DtDT2H8Oy2Zy8m2eVrNsAVKAexjcZXUckd",
    "prev" : "https://api.nasa.gov/neo/rest/v1/feed?start_date=2001-11-07&end_date=2001-11-07&detailed=true&api_key=t0TVs3DtDT2H8Oy2Zy8m2eVrNsAVKAexjcZXUckd",
    "self" : "https://api.nasa.gov/neo/rest/v1/feed?start_date=2001-11-08&end_date=2001-11-08&detailed=true&api_key=t0TVs3DtDT2H8Oy2Zy8m2eVrNsAVKAexjcZXUckd"
  },
  "element_count" : 9,
  "near_earth_objects" : {
    "2001-11-08" : [ {
      "links" : {
        "self" : "https://api.nasa.gov/neo/rest/v1/neo/3170208?api_key=t0TVs3DtDT2H8Oy2Zy8m2eVrNsAVKAexjcZXUckd"
      },
      "neo_reference_id" : "3170208",
      "name" : "(2003 YG136)",
      "nasa_jpl_url" : "http://ssd.jpl.nasa.gov/sbdb.cgi?sstr=3170208",
      "absolute_magnitude_h" : 25.3,
      "estimated_diameter" : {
        "kilometers" : {
          "estimated_diameter_min" : 0.0231502122,
          "estimated_diameter_max" : 0.0517654482
        },
        "meters" : {
          "estimated_diameter_min" : 23.150212221,
          "estimated_diameter_max" : 51.7654482198
        },
        "miles" : {
          "estimated_diameter_min" : 0.0143848705,
          "estimated_diameter_max" : 0.0321655483
        },
        "feet" : {
          "estimated_diameter_min" : 75.9521422633,
          "estimated_diameter_max" : 169.8341531374
        }
      },
      "is_potentially_hazardous_asteroid" : false,
      "close_approach_data" : [ {
        "close_approach_date" : "2001-11-08",
        "epoch_date_close_approach" : 1005206400000,
        "relative_velocity" : {
          "kilometers_per_second" : "9.0768169684",
          "kilometers_per_hour" : "32676.541086239",
          "miles_per_hour" : "20303.9318766134"
        },
        "miss_distance" : {
          "astronomical" : "0.3171910662",
          "lunar" : "123.3873214722",
          "kilometers" : "47451108",
          "miles" : "29484752"
        },
        "orbiting_body" : "Earth"
      } ],
      "orbital_data" : {
        "orbit_id" : "7",
        "orbit_determination_date" : "2017-04-06 09:13:20",
        "orbit_uncertainty" : "7",
        "minimum_orbit_intersection" : ".0121086",
        "jupiter_tisserand_invariant" : "6.179",
        "epoch_osculation" : "2458000.5",
        "eccentricity" : ".3549226433702284",
        "semi_major_axis" : ".9684429084735545",
        "inclination" : "2.737396785357417",
        "ascending_node_longitude" : "86.52928088058039",
        "orbital_period" : "348.1043592183946",
        "perihelion_distance" : ".6247205914449684",
        "perihelion_argument" : "127.946147864187",
        "aphelion_distance" : "1.312165225502141",
        "perihelion_time" : "2457951.778621571451",
        "mean_anomaly" : "50.38631597047415",
        "mean_motion" : "1.034172628025443",
        "equinox" : "J2000"
      }
    }, {
      "links" : {
        "self" : "https://api.nasa.gov/neo/rest/v1/neo/3620670?api_key=t0TVs3DtDT2H8Oy2Zy8m2eVrNsAVKAexjcZXUckd"
      },
      "neo_reference_id" : "3620670",
      "name" : "(2012 XS111)",
      "nasa_jpl_url" : "http://ssd.jpl.nasa.gov/sbdb.cgi?sstr=3620670",
      "absolute_magnitude_h" : 22.0,
      "estimated_diameter" : {
        "kilometers" : {
          "estimated_diameter_min" : 0.1058168859,
          "estimated_diameter_max" : 0.2366137501
        },
        "meters" : {
          "estimated_diameter_min" : 105.8168859331,
          "estimated_diameter_max" : 236.6137501138
        },
        "miles" : {
          "estimated_diameter_min" : 0.0657515442,
          "estimated_diameter_max" : 0.1470249225
        },
        "feet" : {
          "estimated_diameter_min" : 347.1682720448,
          "estimated_diameter_max" : 776.2918559233
        }
      },
      "is_potentially_hazardous_asteroid" : false,
      "close_approach_data" : [ {
        "close_approach_date" : "2001-11-08",
        "epoch_date_close_approach" : 1005206400000,
        "relative_velocity" : {
          "kilometers_per_second" : "21.9441092533",
          "kilometers_per_hour" : "78998.7933117234",
          "miles_per_hour" : "49086.7779886095"
        },
        "miss_distance" : {
          "astronomical" : "0.2612916658",
          "lunar" : "101.6424560547",
          "kilometers" : "39088676",
          "miles" : "24288576"
        },
        "orbiting_body" : "Earth"
      } ],
      "orbital_data" : {
        "orbit_id" : "25",
        "orbit_determination_date" : "2017-04-06 08:47:40",
        "orbit_uncertainty" : "1",
        "minimum_orbit_intersection" : ".0479033",
        "jupiter_tisserand_invariant" : "7.389",
        "epoch_osculation" : "2458000.5",
        "eccentricity" : ".4995239581619437",
        "semi_major_axis" : ".7735306364455583",
        "inclination" : "7.611572905065229",
        "ascending_node_longitude" : "62.23871239664874",
        "orbital_period" : "248.4933125101232",
        "perihelion_distance" : ".3871335511687455",
        "perihelion_argument" : "191.9415777938954",
        "aphelion_distance" : "1.159927721722371",
        "perihelion_time" : "2457877.826219313990",
        "mean_anomaly" : "177.7213261832329",
        "mean_motion" : "1.448731140341389",
        "equinox" : "J2000"
      }
    }, {
      "links" : {
        "self" : "https://api.nasa.gov/neo/rest/v1/neo/3733849?api_key=t0TVs3DtDT2H8Oy2Zy8m2eVrNsAVKAexjcZXUckd"
      },
      "neo_reference_id" : "3733849",
      "name" : "(2015 VL64)",
      "nasa_jpl_url" : "http://ssd.jpl.nasa.gov/sbdb.cgi?sstr=3733849",
      "absolute_magnitude_h" : 28.3,
      "estimated_diameter" : {
        "kilometers" : {
          "estimated_diameter_min" : 0.0058150704,
          "estimated_diameter_max" : 0.0130028927
        },
        "meters" : {
          "estimated_diameter_min" : 5.8150703965,
          "estimated_diameter_max" : 13.0028927004
        },
        "miles" : {
          "estimated_diameter_min" : 0.0036133161,
          "estimated_diameter_max" : 0.0080796204
        },
        "feet" : {
          "estimated_diameter_min" : 19.0783155595,
          "estimated_diameter_max" : 42.6604104873
        }
      },
      "is_potentially_hazardous_asteroid" : false,
      "close_approach_data" : [ {
        "close_approach_date" : "2001-11-08",
        "epoch_date_close_approach" : 1005206400000,
        "relative_velocity" : {
          "kilometers_per_second" : "15.9701311213",
          "kilometers_per_hour" : "57492.4720367707",
          "miles_per_hour" : "35723.5863052923"
        },
        "miss_distance" : {
          "astronomical" : "0.2341304649",
          "lunar" : "91.076751709",
          "kilometers" : "35025420",
          "miles" : "21763788"
        },
        "orbiting_body" : "Earth"
      } ],
      "orbital_data" : {
        "orbit_id" : "5",
        "orbit_determination_date" : "2017-04-06 08:30:53",
        "orbit_uncertainty" : "5",
        "minimum_orbit_intersection" : ".00235268",
        "jupiter_tisserand_invariant" : "6.526",
        "epoch_osculation" : "2458000.5",
        "eccentricity" : ".2883635354637764",
        "semi_major_axis" : ".9087982136241236",
        "inclination" : ".7134564613461423",
        "ascending_node_longitude" : "51.57884629524403",
        "orbital_period" : "316.4460098532576",
        "perihelion_distance" : ".646733947720307",
        "perihelion_argument" : "225.4039685063678",
        "aphelion_distance" : "1.17086247952794",
        "perihelion_time" : "2457881.514016204444",
        "mean_anomaly" : "135.3625984611519",
        "mean_motion" : "1.137634821709205",
        "equinox" : "J2000"
      }
    } ]
  }
}